2022-087C               
1 53301U 22087C   22213.56523597  .00001500  00000+0  69580-4 0  9990
2 53301  97.4048 287.9209 0014384 272.4630 195.2164 15.21530434   823
2022-087D               
1 53302U 22087D   22213.49632478  .00003617  00000+0  16231-3 0  9997
2 53302  97.4055 287.8557 0013513 279.4642 175.0906 15.21757125   817
2022-087E               
1 53303U 22087E   22213.56400682  .00002232  00000+0  10103-3 0  9990
2 53303  97.4084 287.9247 0014761 278.2504 188.8566 15.21852994   822
ZK-1A R/B               
1 53304U 22087F   22213.45503948  .00012596  00000+0  13322-3 0  9998
2 53304  97.2805 287.9365 0174906 293.6266  64.6802 15.47596208   811
1998-067TQ              
1 53305U 98067TQ  22213.44426078  .00018336  00000+0  32156-3 0  9991
2 53305  51.6417 112.3930 0004648  75.2214 284.9290 15.50602056  1683
RS4S                    
1 53306U 98067TR  22213.44340076  .00019852  00000+0  34562-3 0  9992
2 53306  51.6417 112.3880 0004275  78.9915 281.1555 15.50750951  1683
1998-067TS              
1 53307U 98067TS  22210.80105752  .00020662  00000+0  36048-3 0  9992
2 53307  51.6416 125.4904 0004291  61.6389 298.5033 15.50663443  1308
RS3S                    
1 53308U 98067TT  22206.86955286  .00011607  00000+0  20750-3 0  9991
2 53308  51.6418 144.9797 0004462  43.2801 316.8532 15.50481316   722
RS1S                    
1 53309U 98067TU  22211.70301964  .00021154  00000+0  36773-3 0  9999
2 53309  51.6415 121.0147 0004710  77.6181 282.5336 15.50748297  1426
RS5S                    
1 53310U 98067TV  22213.44280776  .00018878  00000+0  32827-3 0  9996
2 53310  51.6419 112.3841 0004279  84.6757 275.4720 15.50821155  1729
RS6S                    
1 53311U 98067TW  22213.12037097  .00019995  00000+0  34669-3 0  9995
2 53311  51.6395 113.9749 0004944  88.2292 271.9263 15.50859775  1698
RS9S                    
1 53312U 98067TX  22206.80490273  .00031450  00000+0  54552-3 0  9995
2 53312  51.6422 145.2976 0005384  57.6491 302.4872 15.50571530   651
RS12S                   
1 53313U 98067TY  22213.44227708  .00019836  00000+0  34339-3 0  9990
2 53313  51.6417 112.3803 0004400  89.0977 271.0517 15.50912309  1736
ALE-DOM                 
1 53314U 19003K   22209.30803999  .01734718  00000+0  21843-1 0  9994
2 53314  97.1334 247.7788 0010613 347.5683  12.4450 15.56547651   130
2022-088A               
1 53316U 22088A   22212.83524922  .00002449  00000+0  10000-3 0  9994
2 53316  34.9972 110.4655 0008378 281.7525  78.1303 15.24026504   340
2022-088B               
1 53317U 22088B   22213.42449559  .00008342  00000+0  33427-3 0  9999
2 53317  34.9989 106.7503 0009577 292.2477  67.7245 15.24256146   430
2022-088C               
1 53318U 22088C   22213.42402160  .00003032  00000+0  12167-3 0  9996
2 53318  34.9975 106.7437 0009572 299.5347  60.4409 15.24494959   431
2022-088D               
1 53319U 22088D   22213.42392567  .00006398  00000+0  25445-3 0  9997
2 53319  34.9990 106.7454 0010048 300.5560  59.4162 15.24555426   439
2022-088E               
1 53320U 22088E   22213.42346448  .00004539  00000+0  17971-3 0  9996
2 53320  34.9976 106.7404 0009742 309.3191  50.6660 15.24798347   444
